[{"OBJECT_NAME":"KINEIS-1D","OBJECT_ID":"2024-114D","EPOCH":"2026-03-10T00:18:20.784384","MEAN_MOTION":14.76114357,"ECCENTRICITY":0.00024808,"INCLINATION":97.9968,"RA_OF_ASC_NODE":90.2039,"ARG_OF_PERICENTER":123.4456,"MEAN_ANOMALY":236.6991,"EPHEMERIS_TYPE":0,"CLASSIFICATION_TYPE":"U","NORAD_CAT_ID":60082,"ELEMENT_SET_NO":999,"REV_AT_EPOCH":9249,"BSTAR":0.00015372971,"MEAN_MOTION_DOT":1.01e-5,"MEAN_MOTION_DDOT":0},{"OBJECT_NAME":"FENGYUN 1C DEB","OBJECT_ID":"1999-025BWL","EPOCH":"2026-03-04T05:24:47.357568","MEAN_MOTION":14.39361247,"ECCENTRICITY":0.01689826,"INCLINATION":98.3806,"RA_OF_ASC_NODE":49.9431,"ARG_OF_PERICENTER":97.9546,"MEAN_ANOMALY":329.9541,"EPHEMERIS_TYPE":0,"CLASSIFICATION_TYPE":"U","NORAD_CAT_ID":31497,"ELEMENT_SET_NO":999,"REV_AT_EPOCH":98727,"BSTAR":0.000269432,"MEAN_MOTION_DOT":9.43e-6,"MEAN_MOTION_DDOT":0}]
